[{"OBJECT_NAME":"MONITOR-2 (RS39S)","OBJECT_ID":"2023-091U","EPOCH":"2026-03-09T22:29:03.497856","MEAN_MOTION":15.17917968,"ECCENTRICITY":0.00130556,"INCLINATION":97.5198,"RA_OF_ASC_NODE":127.8703,"ARG_OF_PERICENTER":98.0854,"MEAN_ANOMALY":262.1862,"EPHEMERIS_TYPE":0,"CLASSIFICATION_TYPE":"U","NORAD_CAT_ID":57184,"ELEMENT_SET_NO":999,"REV_AT_EPOCH":14889,"BSTAR":0.00030772379,"MEAN_MOTION_DOT":6.188e-5,"MEAN_MOTION_DDOT":0},{"OBJECT_NAME":"OBJECT AD","OBJECT_ID":"2025-313AD","EPOCH":"2026-03-09T22:39:46.024416","MEAN_MOTION":15.21252673,"ECCENTRICITY":0.00138238,"INCLINATION":97.3979,"RA_OF_ASC_NODE":145.1661,"ARG_OF_PERICENTER":2.1254,"MEAN_ANOMALY":358.0038,"EPHEMERIS_TYPE":0,"CLASSIFICATION_TYPE":"U","NORAD_CAT_ID":67275,"ELEMENT_SET_NO":999,"REV_AT_EPOCH":1085,"BSTAR":0.00040975515,"MEAN_MOTION_DOT":9.111e-5,"MEAN_MOTION_DDOT":0}]
